{
  "type": "FeatureCollection",
  "features": [
    {
      "type": "Feature",
      "properties": {
        "norad_id": 40362,
        "name": "YAOGAN-26",
        "group": "resource",
        "lat": 33.75414360100508,
        "lon": -25.61197355087861,
        "alt_km": 442.823963534448,
        "timestamp": "2025-12-04T03:47:54.210928+00:00",
        "meta_object_name": "YAOGAN-26",
        "meta_object_id": "2014-088A",
        "meta_epoch": "2025-12-03T19:50:52.006848",
        "meta_mean_motion": 15.38807874,
        "meta_eccentricity": 0.0007304,
        "meta_inclination": 97.0637,
        "meta_ra_of_asc_node": 338.8222,
        "meta_arg_of_pericenter": 53.9642,
        "meta_mean_anomaly": 306.228,
        "meta_ephemeris_type": 0,
        "meta_classification_type": "U",
        "meta_norad_cat_id": 40362,
        "meta_element_set_no": 999,
        "meta_rev_at_epoch": 60757,
        "meta_bstar": 0.00074639,
        "meta_mean_motion_dot": 0.00028658,
        "meta_mean_motion_ddot": 0,
        "tle_line1": "1 40362U 14088A   25337.82699082  .00028658  00000+0  74639-3 0  9990",
        "tle_line2": "2 40362  97.0637 338.8222 0007304  53.9642 306.2280 15.38807874607577"
      },
      "geometry": {
        "type": "Point",
        "coordinates": [
          -25.61197355087861,
          33.75414360100508
        ]
      }
    },
    {
      "type": "Feature",
      "properties": {
        "norad_id": 40376,
        "name": "SMAP",
        "group": "resource",
        "lat": 78.25964852932022,
        "lon": -153.54077714670842,
        "alt_km": 674.3006381052,
        "timestamp": "2025-12-04T03:47:54.210939+00:00",
        "meta_object_name": "SMAP",
        "meta_object_id": "2015-003A",
        "meta_epoch": "2025-12-03T17:30:13.084704",
        "meta_mean_motion": 14.63326014,
        "meta_eccentricity": 0.000121,
        "meta_inclination": 98.1291,
        "meta_ra_of_asc_node": 342.5832,
        "meta_arg_of_pericenter": 87.0827,
        "meta_mean_anomaly": 273.0513,
        "meta_ephemeris_type": 0,
        "meta_classification_type": "U",
        "meta_norad_cat_id": 40376,
        "meta_element_set_no": 999,
        "meta_rev_at_epoch": 57903,
        "meta_bstar": 0.00017645,
        "meta_mean_motion_dot": 8.64e-06,
        "meta_mean_motion_ddot": 0,
        "tle_line1": "1 40376U 15003A   25337.72931811  .00000864  00000+0  17645-3 0  9994",
        "tle_line2": "2 40376  98.1291 342.5832 0001210  87.0827 273.0513 14.63326014579030"
      },
      "geometry": {
        "type": "Point",
        "coordinates": [
          -153.54077714670842,
          78.25964852932022
        ]
      }
    },
    {
      "type": "Feature",
      "properties": {
        "norad_id": 40536,
        "name": "KOMPSAT-3A",
        "group": "resource",
        "lat": -11.148491157304278,
        "lon": 130.5113154414532,
        "alt_km": 438.53219122067003,
        "timestamp": "2025-12-04T03:47:54.210949+00:00",
        "meta_object_name": "KOMPSAT-3A",
        "meta_object_id": "2015-014A",
        "meta_epoch": "2025-12-03T20:44:57.400800",
        "meta_mean_motion": 15.43449461,
        "meta_eccentricity": 0.0003813,
        "meta_inclination": 97.6773,
        "meta_ra_of_asc_node": 311.725,
        "meta_arg_of_pericenter": 145.7427,
        "meta_mean_anomaly": 214.4067,
        "meta_ephemeris_type": 0,
        "meta_classification_type": "U",
        "meta_norad_cat_id": 40536,
        "meta_element_set_no": 999,
        "meta_rev_at_epoch": 59158,
        "meta_bstar": 0.00066897,
        "meta_mean_motion_dot": 0.00029921,
        "meta_mean_motion_ddot": 0,
        "tle_line1": "1 40536U 15014A   25337.86455325  .00029921  00000+0  66897-3 0  9998",
        "tle_line2": "2 40536  97.6773 311.7250 0003813 145.7427 214.4067 15.43449461591586"
      },
      "geometry": {
        "type": "Point",
        "coordinates": [
          130.5113154414532,
          -11.148491157304278
        ]
      }
    },
    {
      "type": "Feature",
      "properties": {
        "norad_id": 40697,
        "name": "SENTINEL-2A",
        "group": "resource",
        "lat": -68.02291486649045,
        "lon": -151.1293743929947,
        "alt_km": 796.9083078444664,
        "timestamp": "2025-12-04T03:47:54.210959+00:00",
        "meta_object_name": "SENTINEL-2A",
        "meta_object_id": "2015-028A",
        "meta_epoch": "2025-12-03T19:55:18.901632",
        "meta_mean_motion": 14.30821541,
        "meta_eccentricity": 0.0001042,
        "meta_inclination": 98.5702,
        "meta_ra_of_asc_node": 50.4896,
        "meta_arg_of_pericenter": 93.8329,
        "meta_mean_anomaly": 266.2973,
        "meta_ephemeris_type": 0,
        "meta_classification_type": "U",
        "meta_norad_cat_id": 40697,
        "meta_element_set_no": 999,
        "meta_rev_at_epoch": 54579,
        "meta_bstar": 0.0001152,
        "meta_mean_motion_dot": 2.58e-06,
        "meta_mean_motion_ddot": 0,
        "tle_line1": "1 40697U 15028A   25337.83007988  .00000258  00000+0  11520-3 0  9991",
        "tle_line2": "2 40697  98.5702  50.4896 0001042  93.8329 266.2973 14.30821541545796"
      },
      "geometry": {
        "type": "Point",
        "coordinates": [
          -151.1293743929947,
          -68.02291486649045
        ]
      }
    },
    {
      "type": "Feature",
      "properties": {
        "norad_id": 40701,
        "name": "GAOFEN-8",
        "group": "resource",
        "lat": -40.20231793562017,
        "lon": -30.67474414356221,
        "alt_km": 453.63028056504027,
        "timestamp": "2025-12-04T03:47:54.210969+00:00",
        "meta_object_name": "GAOFEN-8",
        "meta_object_id": "2015-030A",
        "meta_epoch": "2025-12-03T20:35:50.620128",
        "meta_mean_motion": 15.38077163,
        "meta_eccentricity": 0.0011244,
        "meta_inclination": 97.6905,
        "meta_ra_of_asc_node": 155.5687,
        "meta_arg_of_pericenter": 169.3357,
        "meta_mean_anomaly": 190.8128,
        "meta_ephemeris_type": 0,
        "meta_classification_type": "U",
        "meta_norad_cat_id": 40701,
        "meta_element_set_no": 999,
        "meta_rev_at_epoch": 58134,
        "meta_bstar": 0.00080535,
        "meta_mean_motion_dot": 0.00030238,
        "meta_mean_motion_ddot": 0,
        "tle_line1": "1 40701U 15030A   25337.85822477  .00030238  00000+0  80535-3 0  9993",
        "tle_line2": "2 40701  97.6905 155.5687 0011244 169.3357 190.8128 15.38077163581344"
      },
      "geometry": {
        "type": "Point",
        "coordinates": [
          -30.67474414356221,
          -40.20231793562017
        ]
      }
    },
    {
      "type": "Feature",
      "properties": {
        "norad_id": 40718,
        "name": "CARBONITE 1 (CBNT-1)",
        "group": "resource",
        "lat": 66.2511686191497,
        "lon": 141.81798426103515,
        "alt_km": 622.1730441371519,
        "timestamp": "2025-12-04T03:47:54.210980+00:00",
        "meta_object_name": "CARBONITE 1 (CBNT-1)",
        "meta_object_id": "2015-032D",
        "meta_epoch": "2025-12-03T19:23:45.736800",
        "meta_mean_motion": 14.82674569,
        "meta_eccentricity": 0.0013857,
        "meta_inclination": 97.6398,
        "meta_ra_of_asc_node": 159.2458,
        "meta_arg_of_pericenter": 211.5567,
        "meta_mean_anomaly": 148.4817,
        "meta_ephemeris_type": 0,
        "meta_classification_type": "U",
        "meta_norad_cat_id": 40718,
        "meta_element_set_no": 999,
        "meta_rev_at_epoch": 56038,
        "meta_bstar": 0.00050482,
        "meta_mean_motion_dot": 4.027e-05,
        "meta_mean_motion_ddot": 0,
        "tle_line1": "1 40718U 15032D   25337.80816825  .00004027  00000+0  50482-3 0  9993",
        "tle_line2": "2 40718  97.6398 159.2458 0013857 211.5567 148.4817 14.82674569560386"
      },
      "geometry": {
        "type": "Point",
        "coordinates": [
          141.81798426103515,
          66.2511686191497
        ]
      }
    },
    {
      "type": "Feature",
      "properties": {
        "norad_id": 40878,
        "name": "YAOGAN-27",
        "group": "resource",
        "lat": -45.03173937086653,
        "lon": 137.8880625985936,
        "alt_km": 1205.5595518836826,
        "timestamp": "2025-12-04T03:47:54.210991+00:00",
        "meta_object_name": "YAOGAN-27",
        "meta_object_id": "2015-040A",
        "meta_epoch": "2025-12-03T21:10:47.781408",
        "meta_mean_motion": 13.1605966,
        "meta_eccentricity": 0.0007734,
        "meta_inclination": 100.1004,
        "meta_ra_of_asc_node": 327.9034,
        "meta_arg_of_pericenter": 308.5411,
        "meta_mean_anomaly": 51.501,
        "meta_ephemeris_type": 0,
        "meta_classification_type": "U",
        "meta_norad_cat_id": 40878,
        "meta_element_set_no": 999,
        "meta_rev_at_epoch": 49197,
        "meta_bstar": 5.377e-05,
        "meta_mean_motion_dot": -2.2e-07,
        "meta_mean_motion_ddot": 0,
        "tle_line1": "1 40878U 15040A   25337.88249747 -.00000022  00000+0  53770-4 0  9996",
        "tle_line2": "2 40878 100.1004 327.9034 0007734 308.5411  51.5010 13.16059660491975"
      },
      "geometry": {
        "type": "Point",
        "coordinates": [
          137.8880625985936,
          -45.03173937086653
        ]
      }
    }
  ]
}